{
  "norad_id": 65481,
  "name": "STARLINK-35042",
  "history": [
    {
      "epoch": "2026-03-28T12:30:56.690208Z",
      "apogee_km": 475.7731954666924,
      "perigee_km": 474.58208938183907,
      "latitude_deg": -1.4432674136028469e-05,
      "longitude_deg": 157.26244079127474,
      "height_km": 475.8887676777474,
      "semi_major_axis_km": 6853.314642424266,
      "eccentricity": 8.69e-05,
      "inclination_deg": 53.1584,
      "raan_deg": 170.9394,
      "arg_perigee_deg": 71.6609,
      "mean_anomaly_deg": 288.4486,
      "mean_motion_rev_day": 15.30212535
    },
    {
      "epoch": "2026-03-29T19:52:00.746688Z",
      "apogee_km": 476.1390043489846,
      "perigee_km": 474.3118979195124,
      "latitude_deg": -1.4555283724895704e-05,
      "longitude_deg": 39.63779390723467,
      "height_km": 475.72662947160893,
      "semi_major_axis_km": 6853.362451134249,
      "eccentricity": 0.0001333,
      "inclination_deg": 53.1583,
      "raan_deg": 164.8692,
      "arg_perigee_deg": 64.255,
      "mean_anomaly_deg": 295.8588,
      "mean_motion_rev_day": 15.30196523
    },
    {
      "epoch": "2026-03-29T19:52:00.747552Z",
      "apogee_km": 476.1387987481121,
      "perigee_km": 474.3121035203867,
      "latitude_deg": -1.2063585076163293e-05,
      "longitude_deg": 39.6377921539102,
      "height_km": 475.72671877625555,
      "semi_major_axis_km": 6853.362451134249,
      "eccentricity": 0.00013327,
      "inclination_deg": 53.1583,
      "raan_deg": 164.8692,
      "arg_perigee_deg": 64.255,
      "mean_anomaly_deg": 295.8588,
      "mean_motion_rev_day": 15.30196523
    },
    {
      "epoch": "2026-03-30T11:32:32.585280Z",
      "apogee_km": 476.0180713398413,
      "perigee_km": 474.40712298353264,
      "latitude_deg": -1.1452315182779473e-05,
      "longitude_deg": 160.82766571274743,
      "height_km": 476.25819840932104,
      "semi_major_axis_km": 6853.349597161687,
      "eccentricity": 0.00011753,
      "inclination_deg": 53.1586,
      "raan_deg": 161.8355,
      "arg_perigee_deg": 100.5532,
      "mean_anomaly_deg": 259.5601,
      "mean_motion_rev_day": 15.30200828
    },
    {
      "epoch": "2026-03-31T14:11:27.353184Z",
      "apogee_km": 476.0896466641998,
      "perigee_km": 474.4338655247284,
      "latitude_deg": 3.2629766724909585e-06,
      "longitude_deg": 114.84756158474332,
      "height_km": 476.05403338456057,
      "semi_major_axis_km": 6853.398756094464,
      "eccentricity": 0.0001208,
      "inclination_deg": 53.1585,
      "raan_deg": 156.678,
      "arg_perigee_deg": 82.6627,
      "mean_anomaly_deg": 277.4511,
      "mean_motion_rev_day": 15.30184364
    },
    {
      "epoch": "2026-04-01T09:00:05.910624Z",
      "apogee_km": 476.0617524967438,
      "perigee_km": 474.3813089850055,
      "latitude_deg": 4.125707263995784e-05,
      "longitude_deg": -171.72389349705068,
      "height_km": 475.82961358570105,
      "semi_major_axis_km": 6853.358530740874,
      "eccentricity": 0.0001226,
      "inclination_deg": 53.1596,
      "raan_deg": 153.0397,
      "arg_perigee_deg": 69.8012,
      "mean_anomaly_deg": 290.3121,
      "mean_motion_rev_day": 15.30197836
    },
    {
      "epoch": "2026-04-02T10:04:56.471520Z",
      "apogee_km": 476.04083445180277,
      "perigee_km": 474.24746784017134,
      "latitude_deg": 3.8551602639526236e-06,
      "longitude_deg": 166.17958108527824,
      "height_km": 475.90850264076164,
      "semi_major_axis_km": 6853.281151145987,
      "eccentricity": 0.00013084,
      "inclination_deg": 53.1601,
      "raan_deg": 148.1839,
      "arg_perigee_deg": 81.4241,
      "mean_anomaly_deg": 278.6908,
      "mean_motion_rev_day": 15.30223752
    },
    {
      "epoch": "2026-04-02T21:03:18.633600Z",
      "apogee_km": 476.0897535846252,
      "perigee_km": 474.2000296358319,
      "latitude_deg": 2.4193170201733865e-05,
      "longitude_deg": -0.9882832624793402,
      "height_km": 476.05888538208734,
      "semi_major_axis_km": 6853.281891610228,
      "eccentricity": 0.00013787,
      "inclination_deg": 53.16,
      "raan_deg": 146.059,
      "arg_perigee_deg": 90.9741,
      "mean_anomaly_deg": 269.1418,
      "mean_motion_rev_day": 15.30223504
    },
    {
      "epoch": "2026-04-03T12:43:50.870496Z",
      "apogee_km": 476.1061184428072,
      "perigee_km": 474.50200202824817,
      "latitude_deg": 1.3023058487601822e-05,
      "longitude_deg": 120.20051316763887,
      "height_km": 476.34028272351946,
      "semi_major_axis_km": 6853.441060235527,
      "eccentricity": 0.00011703,
      "inclination_deg": 53.1593,
      "raan_deg": 143.0259,
      "arg_perigee_deg": 99.9132,
      "mean_anomaly_deg": 260.2001,
      "mean_motion_rev_day": 15.30170196
    },
    {
      "epoch": "2026-04-04T12:14:38.999904Z",
      "apogee_km": 475.9122604878057,
      "perigee_km": 474.42015931294554,
      "latitude_deg": -3.087633110800289e-05,
      "longitude_deg": 121.98408097665018,
      "height_km": 476.092237568773,
      "semi_major_axis_km": 6853.303209900375,
      "eccentricity": 0.00010886,
      "inclination_deg": 53.1593,
      "raan_deg": 138.4757,
      "arg_perigee_deg": 92.1332,
      "mean_anomaly_deg": 267.9793,
      "mean_motion_rev_day": 15.30216364
    },
    {
      "epoch": "2026-04-05T11:45:27.362592Z",
      "apogee_km": 476.064943970091,
      "perigee_km": 474.39203745380837,
      "latitude_deg": 1.0044581315589157e-05,
      "longitude_deg": 123.76493649787407,
      "height_km": 475.9981052946265,
      "semi_major_axis_km": 6853.365490711949,
      "eccentricity": 0.00012205,
      "inclination_deg": 53.1593,
      "raan_deg": 133.9237,
      "arg_perigee_deg": 81.1649,
      "mean_anomaly_deg": 278.949,
      "mean_motion_rev_day": 15.30195505
    },
    {
      "epoch": "2026-04-07T10:47:02.393664Z",
      "apogee_km": 475.60263505366675,
      "perigee_km": 474.7391182612082,
      "latitude_deg": 2.1348645240841896e-05,
      "longitude_deg": 127.33837188768932,
      "height_km": 476.47315030039505,
      "semi_major_axis_km": 6853.307876657437,
      "eccentricity": 6.3e-05,
      "inclination_deg": 53.1589,
      "raan_deg": 124.8244,
      "arg_perigee_deg": 158.9571,
      "mean_anomaly_deg": 201.1456,
      "mean_motion_rev_day": 15.30214801
    },
    {
      "epoch": "2026-04-08T11:51:54.724896Z",
      "apogee_km": 476.47928632409094,
      "perigee_km": 474.2096873949031,
      "latitude_deg": 8.217765732511647e-07,
      "longitude_deg": 105.23545824149801,
      "height_km": 475.9741685237271,
      "semi_major_axis_km": 6853.481486859497,
      "eccentricity": 0.00016558,
      "inclination_deg": 53.158,
      "raan_deg": 119.9696,
      "arg_perigee_deg": 76.3556,
      "mean_anomaly_deg": 283.7629,
      "mean_motion_rev_day": 15.30156657
    },
    {
      "epoch": "2026-04-09T11:22:41.840832Z",
      "apogee_km": 475.9098650585147,
      "perigee_km": 474.4728591675457,
      "latitude_deg": 1.577478581026466e-05,
      "longitude_deg": 107.02180184124418,
      "height_km": 476.0751917763812,
      "semi_major_axis_km": 6853.3283621130295,
      "eccentricity": 0.00010484,
      "inclination_deg": 53.1577,
      "raan_deg": 115.4179,
      "arg_perigee_deg": 88.8596,
      "mean_anomaly_deg": 271.2525,
      "mean_motion_rev_day": 15.3020794
    },
    {
      "epoch": "2026-04-10T10:53:29.740416Z",
      "apogee_km": 476.0751339655917,
      "perigee_km": 474.2877885109019,
      "latitude_deg": -5.1190167294952e-05,
      "longitude_deg": 108.80841059158813,
      "height_km": 476.32057505169627,
      "semi_major_axis_km": 6853.3184612382465,
      "eccentricity": 0.0001304,
      "inclination_deg": 53.1576,
      "raan_deg": 110.8698,
      "arg_perigee_deg": 105.6628,
      "mean_anomaly_deg": 254.4516,
      "mean_motion_rev_day": 15.30211256
    },
    {
      "epoch": "2026-04-11T07:16:11.424864Z",
      "apogee_km": 475.6858823775956,
      "perigee_km": 474.8059080138528,
      "latitude_deg": -3.899692235209495e-05,
      "longitude_deg": 158.3493278907244,
      "height_km": 475.733280188986,
      "semi_major_axis_km": 6853.382895195724,
      "eccentricity": 6.42e-05,
      "inclination_deg": 53.1578,
      "raan_deg": 106.9213,
      "arg_perigee_deg": 20.613,
      "mean_anomaly_deg": 339.4896,
      "mean_motion_rev_day": 15.30189676
    },
    {
      "epoch": "2026-04-13T06:17:47.262912Z",
      "apogee_km": 477.2357238102386,
      "perigee_km": 473.1409989733147,
      "latitude_deg": 2.8068868555830065e-05,
      "longitude_deg": 161.91923649436393,
      "height_km": 476.2714197153501,
      "semi_major_axis_km": 6853.325361391776,
      "eccentricity": 0.00029874,
      "inclination_deg": 53.1588,
      "raan_deg": 97.8218,
      "arg_perigee_deg": 95.2589,
      "mean_anomaly_deg": 264.8753,
      "mean_motion_rev_day": 15.30208945
    },
    {
      "epoch": "2026-04-14T08:56:41.661888Z",
      "apogee_km": 476.13116876087406,
      "perigee_km": 474.27966977288634,
      "latitude_deg": -5.373686954175265e-05,
      "longitude_deg": 115.94030142829844,
      "height_km": 476.00832479111835,
      "semi_major_axis_km": 6853.34241926688,
      "eccentricity": 0.00013508,
      "inclination_deg": 53.1599,
      "raan_deg": 92.664,
      "arg_perigee_deg": 84.1057,
      "mean_anomaly_deg": 276.0097,
      "mean_motion_rev_day": 15.30203232
    },
    {
      "epoch": "2026-04-15T16:17:45.528288Z",
      "apogee_km": 476.1578905160559,
      "perigee_km": 474.24992040797497,
      "latitude_deg": -8.57136124605951e-06,
      "longitude_deg": -1.6824154740029287,
      "height_km": 476.06486616825697,
      "semi_major_axis_km": 6853.340905462015,
      "eccentricity": 0.0001392,
      "inclination_deg": 53.1602,
      "raan_deg": 86.5949,
      "arg_perigee_deg": 87.7789,
      "mean_anomaly_deg": 272.3371,
      "mean_motion_rev_day": 15.30203739
    }
  ]
}